NORAD_CAT_ID,OBJECT_NAME,OBJECT_TYPE,EPOCH,MEAN_MOTION,ECCENTRICITY,INCLINATION,RA_OF_ASC_NODE,ARG_OF_PERICENTER,MEAN_ANOMALY,BSTAR,MEAN_MOTION_DOT,MEAN_MOTION_DDOT,TLE_LINE0,TLE_LINE1,TLE_LINE2,SEMIMAJOR_AXIS,PERIOD,APOGEE,PERIGEE,DECAYED
56767.0,STARLINK-6197,PAYLOAD,2024-03-18 04:48:11,14.98333468,0.0002792,70.0012,23.643,266.8231,93.2609,2.0794e-05,1.55e-06,0.0,0 STARLINK-6197,1 56767U 23078A   24078.20013643  .00000155  00000-0  20794-4 0  9998,2 56767  70.0012  23.6430 0002792 266.8231  93.2609 14.98333468 44375,6950.182,96.107,573.988,570.107,0.0
56767.0,STARLINK-6197,PAYLOAD,2024-03-18 06:24:19,14.98334443,0.0002786,70.0012,23.4747,266.589,93.4951,3.1419e-05,2.82e-06,0.0,0 STARLINK-6197,1 56767U 23078A   24078.26689535  .00000282  00000-0  31419-4 0  9990,2 56767  70.0012  23.4747 0002786 266.5890  93.4951 14.98334443 44124,6950.179,96.107,573.98,570.108,0.0
56767.0,STARLINK-6197,PAYLOAD,2024-03-18 22:25:40,14.98330698,0.0002655,70.0015,21.7915,266.7281,93.3575,9.0276e-06,1.5e-07,0.0,0 STARLINK-6197,1 56767U 23078A   24078.93449732  .00000015  00000-0  90276-5 0  9998,2 56767  70.0015  21.7915 0002655 266.7281  93.3575 14.98330698 44226,6950.191,96.107,573.901,570.21,0.0
56767.0,STARLINK-6197,PAYLOAD,2024-03-19 06:26:20,14.98334023,0.0002603,70.0017,20.9517,254.8737,105.2135,4.6383e-05,4.61e-06,0.0,0 STARLINK-6197,1 56767U 23078A   24079.26829323  .00000461  00000-0  46383-4 0  9997,2 56767  70.0017  20.9517 0002603 254.8737 105.2135 14.98334023 44270,6950.18,96.107,573.855,570.236,0.0
56767.0,STARLINK-6197,PAYLOAD,2024-03-19 20:51:32,14.98337934,0.0002613,70.0016,19.4371,255.2358,104.8512,5.928e-05,6.15e-06,0.0,0 STARLINK-6197,1 56767U 23078A   24079.86912807  .00000615  00000-0  59280-4 0  9994,2 56767  70.0016  19.4371 0002613 255.2358 104.8512 14.98337934 44622,6950.168,96.106,573.849,570.217,0.0
56767.0,STARLINK-6197,PAYLOAD,2024-03-20 06:28:20,14.98342705,0.0002547,70.0019,18.4267,254.7144,105.3734,0.00011115,1.234e-05,0.0,0 STARLINK-6197,1 56767U 23078A   24080.26968108  .00001234  00000-0  11115-3 0  9997,2 56767  70.0019  18.4267 0002547 254.7144 105.3734 14.98342705 44423,6950.154,96.106,573.789,570.248,0.0
56767.0,STARLINK-6197,PAYLOAD,2024-03-20 20:53:34,14.98327421,0.0002517,70.0016,16.9111,240.4846,119.6062,-4.3085e-05,-6.07e-06,0.0,0 STARLINK-6197,1 56767U 23078A   24080.87053430 -.00000607  00000-0 -43085-4 0  9994,2 56767  70.0016  16.9111 0002517 240.4846 119.6062 14.98327421 44777,6950.201,96.107,573.815,570.317,0.0
56767.0,STARLINK-6197,PAYLOAD,2024-03-20 22:29:42,14.98326982,0.0002531,70.0021,16.7431,236.758,123.3337,-4.5809e-05,-6.39e-06,0.0,0 STARLINK-6197,1 56767U 23078A   24080.93729468 -.00000639  00000-0 -45809-4 0  9993,2 56767  70.0021  16.7431 0002531 236.7580 123.3337 14.98326982 44526,6950.202,96.107,573.826,570.308,0.0
56767.0,STARLINK-6197,PAYLOAD,2024-03-21 12:54:54,14.98329698,0.0002838,70.0016,15.2283,268.1061,91.9773,-8.1987e-05,-1.071e-05,0.0,0 STARLINK-6197,1 56767U 23078A   24081.53813562 -.00001071  00000-0 -81987-4 0  9997,2 56767  70.0016  15.2283 0002838 268.1061  91.9773 14.98329698 44613,6950.194,96.107,574.031,570.086,0.0
56767.0,STARLINK-6197,PAYLOAD,2024-03-21 20:55:34,14.98343444,0.0002683,70.0016,14.3856,254.8758,105.2105,1.3143e-05,6.4e-07,0.0,0 STARLINK-6197,1 56767U 23078A   24081.87192376  .00000064  00000-0  13143-4 0  9995,2 56767  70.0016  14.3856 0002683 254.8758 105.2105 14.98343444 44929,6950.151,96.106,573.881,570.152,0.0
56767.0,STARLINK-6197,PAYLOAD,2024-03-21 22:31:42,14.98341305,0.0002824,70.0012,14.2174,256.4202,103.6643,-2.4481e-05,-3.85e-06,0.0,0 STARLINK-6197,1 56767U 23078A   24081.93868548 -.00000385  00000-0 -24481-4 0  9998,2 56767  70.0012  14.2174 0002824 256.4202 103.6643 14.98341305 44671,6950.158,96.106,573.986,570.06,0.0
56767.0,STARLINK-6197,PAYLOAD,2024-03-22 04:56:14,14.98342397,0.0002548,70.0024,13.5454,247.2908,112.7982,2.6809e-05,2.27e-06,0.0,0 STARLINK-6197,1 56767U 23078A   24082.20572187  .00000227  00000-0  26809-4 0  9999,2 56767  70.0024  13.5454 0002548 247.2908 112.7982 14.98342397 44715,6950.155,96.106,573.79,570.249,0.0
56767.0,STARLINK-6197,PAYLOAD,2024-03-22 20:57:36,14.98298131,0.0002732,70.0044,11.8625,271.0376,89.047,0.00044774,5.249e-05,0.0,0 STARLINK-6197,1 56767U 23078A   24082.87333675  .00005249  00000-0  44774-3 0  9998,2 56767  70.0044  11.8625 0002732 271.0376  89.0470 14.98298131 45071,6950.291,96.109,574.055,570.258,0.0
56767.0,STARLINK-6197,PAYLOAD,2024-03-22 22:33:44,14.98323359,0.0003016,70.001,11.6928,271.0375,89.0438,3.3071e-05,3.02e-06,0.0,0 STARLINK-6197,1 56767U 23078A   24082.94009518  .00000302  00000-0  33071-4 0  9996,2 56767  70.0010  11.6928 0003016 271.0375  89.0438 14.98323359 44820,6950.213,96.107,574.175,569.982,0.0
56767.0,STARLINK-6197,PAYLOAD,2024-03-23 03:22:08,14.98320301,0.0002849,70.0023,11.1889,267.951,92.1323,7.7149e-05,8.27e-06,0.0,0 STARLINK-6197,1 56767U 23078A   24083.14037665  .00000827  00000-0  77149-4 0  9999,2 56767  70.0023  11.1889 0002849 267.9510  92.1323 14.98320301 45118,6950.223,96.108,574.068,570.108,0.0
56767.0,STARLINK-6197,PAYLOAD,2024-03-23 22:35:45,14.98324924,0.0003142,70.002,9.1677,268.5152,91.5647,0.00013791,1.553e-05,0.0,0 STARLINK-6197,1 56767U 23078A   24083.94149347  .00001553  00000-0  13791-3 0  9997,2 56767  70.0020   9.1677 0003142 268.5152  91.5647 14.98324924 44973,6950.209,96.107,574.257,569.89,0.0
56767.0,STARLINK-6197,PAYLOAD,2024-03-24 05:00:15,14.98348703,0.0002548,70.002,8.4969,257.5251,102.5623,0.00011349,1.262e-05,0.0,0 STARLINK-6197,1 56767U 23078A   24084.20851794  .00001262  00000-0  11349-3 0  9997,2 56767  70.0020   8.4969 0002548 257.5251 102.5623 14.98348703 45278,6950.135,96.106,573.771,570.229,0.0
56767.0,STARLINK-6197,PAYLOAD,2024-03-24 21:01:37,14.98329017,0.0002244,70.003,6.8158,246.0759,114.0165,4.9468e-05,4.97e-06,0.0,0 STARLINK-6197,1 56767U 23078A   24084.87613014  .00000497  00000-0  49468-4 0  9994,2 56767  70.0030   6.8158 0002244 246.0759 114.0165 14.98329017 45377,6950.196,96.107,573.621,570.501,0.0
56767.0,STARLINK-6197,PAYLOAD,2024-03-24 22:37:41,14.983825,0.0002436,70.0024,6.6448,252.919,107.1703,0.00067075,7.93e-05,0.0,0 STARLINK-6197,1 56767U 23078A   24084.94284090  .00007930  00000-0  67075-3 0  9992,2 56767  70.0024   6.6448 0002436 252.9190 107.1703 14.98382500 45128,6950.031,96.104,573.589,570.203,0.0
56767.0,STARLINK-6197,PAYLOAD,2024-03-25 11:26:51,14.98312575,0.0002254,70.0046,5.2936,296.1919,63.9008,-0.00020121,-2.492e-05,0.0,0 STARLINK-6197,1 56767U 23078A   24085.47698098 -.00002492  00000-0 -20121-3 0  9999,2 56767  70.0046   5.2936 0002254 296.1919  63.9008 14.98312575 45465,6950.247,96.108,573.678,570.545,0.0
56767.0,STARLINK-6197,PAYLOAD,2024-03-25 21:03:40,14.98303214,0.0002376,70.0017,4.2878,272.951,87.1377,-0.00035755,-4.353e-05,0.0,0 STARLINK-6197,1 56767U 23078A   24085.87755435 -.00004353  00000-0 -35755-3 0  9999,2 56767  70.0017   4.2878 0002376 272.9510  87.1377 14.98303214 45525,6950.276,96.109,573.792,570.489,0.0
56767.0,STARLINK-6197,PAYLOAD,2024-03-25 22:39:48,14.98301648,0.0002322,70.0023,4.1198,266.9991,93.0902,-0.00036374,-4.427e-05,0.0,0 STARLINK-6197,1 56767U 23078A   24085.94431624 -.00004427  00000-0 -36374-3 0  9998,2 56767  70.0023   4.1198 0002322 266.9991  93.0902 14.98301648 45274,6950.281,96.109,573.759,570.532,0.0
56767.0,STARLINK-6197,PAYLOAD,2024-03-26 11:28:52,14.98318912,0.0003053,70.0007,2.7711,267.5461,92.5349,-0.0003697,-4.5e-05,0.0,0 STARLINK-6197,1 56767U 23078A   24086.47838974 -.00004500  00000-0 -36970-3 0  9990,2 56767  70.0007   2.7711 0003053 267.5461  92.5349 14.98318912 45611,6950.227,96.108,574.214,569.97,0.0
56767.0,STARLINK-6197,PAYLOAD,2024-03-26 21:05:41,14.98316403,0.00023,70.0016,1.765,253.9724,106.1182,-3.0513e-05,-4.57e-06,0.0,0 STARLINK-6197,1 56767U 23078A   24086.87894849 -.00000457  00000-0 -30513-4 0  9992,2 56767  70.0016   1.7650 0002300 253.9724 106.1182 14.98316403 45673,6950.235,96.108,573.698,570.501,0.0
56767.0,STARLINK-6197,PAYLOAD,2024-03-26 22:41:49,14.98317466,0.0002357,70.0016,1.5967,256.7309,103.3587,-3.4512e-05,-5.04e-06,0.0,0 STARLINK-6197,1 56767U 23078A   24086.94570861 -.00000504  00000-0 -34512-4 0  9991,2 56767  70.0016   1.5967 0002357 256.7309 103.3587 14.98317466 45425,6950.232,96.108,573.735,570.458,0.0
56767.0,STARLINK-6197,PAYLOAD,2024-03-27 11:30:51,14.98373786,0.0002971,70.0003,0.2459,273.5412,86.5407,-0.0007043,-8.496e-05,0.0,0 STARLINK-6197,1 56767U 23078A   24087.47976635 -.00008496  00000-0 -70430-3 0  9995,2 56767  70.0003   0.2459 0002971 273.5412  86.5407 14.98373786 45764,6950.057,96.104,573.987,569.858,0.0
56767.0,STARLINK-6197,PAYLOAD,2024-03-27 21:07:41,14.98316253,0.0002741,70.0007,359.2375,269.8099,90.2746,0.00048339,5.677e-05,0.0,0 STARLINK-6197,1 56767U 23078A   24087.88033738  .00005677  00000-0  48339-3 0  9997,2 56767  70.0007 359.2375 0002741 269.8099  90.2746 14.98316253 45827,6950.235,96.108,574.005,570.195,0.0
56767.0,STARLINK-6197,PAYLOAD,2024-03-27 22:43:49,14.98316983,0.000274,70.0007,359.0692,269.7859,90.2986,0.00048103,5.649e-05,0.0,0 STARLINK-6197,1 56767U 23078A   24087.94709761  .00005649  00000-0  48103-3 0  9998,2 56767  70.0007 359.0692 0002740 269.7859  90.2986 14.98316983 45577,6950.233,96.108,574.003,570.194,0.0
56767.0,STARLINK-6197,PAYLOAD,2024-03-28 03:32:12,14.98328247,0.0002768,70.0006,358.564,269.8272,90.257,0.00048919,5.748e-05,0.0,0 STARLINK-6197,1 56767U 23078A   24088.14737108  .00005748  00000-0  48919-3 0  9992,2 56767  70.0006 358.5640 0002768 269.8272  90.2570 14.98328247 45860,6950.198,96.107,573.987,570.139,0.0
56767.0,STARLINK-6197,PAYLOAD,2024-03-28 11:32:53,14.98326449,0.0002334,70.0014,357.7221,276.6881,83.4012,0.0002892,3.359e-05,0.0,0 STARLINK-6197,1 56767U 23078A   24088.48118002  .00003359  00000-0  28920-3 0  9991,2 56767  70.0014 357.7221 0002334 276.6881  83.4012 14.98326449 45919,6950.204,96.107,573.691,570.447,0.0
